[
    {
        "Altitude(m)": 702684.2638073872,
        "Argument of Periapsis(deg)": 0.0,
        "Eccentricity": 0.0,
        "Inclination(deg)": 45.0,
        "Latitude(deg)": 11.49892747913329,
        "Longitude(deg)": -111.64315592224412,
        "Mean Anomaly(deg)": 163.6364,
        "RAAN(deg)": 180.0,
        "Satellite Name": "Constellation 1 802",
        "Satellite Number": 802,
        "Semi-Major Axis(m)": 7083131.272910544,
        "Time(s)": 0
    },
    {
        "Altitude(m)": 702684.4172495637,
        "Argument of Periapsis(deg)": 5.994800624540561e-05,
        "Eccentricity": 0.0,
        "Inclination(deg)": 45.0,
        "Latitude(deg)": 11.456605443743527,
        "Longitude(deg)": -111.60263842800447,
        "Mean Anomaly(deg)": 163.69710114024986,
        "RAAN(deg)": 179.99994341083445,
        "Satellite Name": "Constellation 1 802",
        "Satellite Number": 802,
        "Semi-Major Axis(m)": 7083131.272910544,
        "Time(s)": 1
    },
    {
        "Altitude(m)": 702684.5897691735,
        "Argument of Periapsis(deg)": 0.00011989601249081122,
        "Eccentricity": 0.0,
        "Inclination(deg)": 45.0,
        "Latitude(deg)": 11.414276518408075,
        "Longitude(deg)": -111.56213423926913,
        "Mean Anomaly(deg)": 163.75780228049985,
        "RAAN(deg)": 179.99988682166887,
        "Satellite Name": "Constellation 1 802",
        "Satellite Number": 802,
        "Semi-Major Axis(m)": 7083131.272910544,
        "Time(s)": 2
    },
    {
        "Altitude(m)": 702684.7813837058,
        "Argument of Periapsis(deg)": 0.00017984401873621686,
        "Eccentricity": 0.0,
        "Inclination(deg)": 45.0,
        "Latitude(deg)": 11.371940731450312,
        "Longitude(deg)": -111.52164330399036,
        "Mean Anomaly(deg)": 163.8185034207497,
        "RAAN(deg)": 179.9998302325033,
        "Satellite Name": "Constellation 1 802",
        "Satellite Number": 802,
        "Semi-Major Axis(m)": 7083131.272910544,
        "Time(s)": 3
    },
    {
        "Altitude(m)": 702684.9921105795,
        "Argument of Periapsis(deg)": 0.00023979202498162244,
        "Eccentricity": 0.0,
        "Inclination(deg)": 45.0,
        "Latitude(deg)": 11.329598111167481,
        "Longitude(deg)": -111.48116557014589,
        "Mean Anomaly(deg)": 163.8792045609996,
        "RAAN(deg)": 179.9997736433377,
        "Satellite Name": "Constellation 1 802",
        "Satellite Number": 802,
        "Semi-Major Axis(m)": 7083131.272910544,
        "Time(s)": 4
    },
    {
        "Altitude(m)": 702685.2219671264,
        "Argument of Periapsis(deg)": 0.00029974003122702807,
        "Eccentricity": 0.0,
        "Inclination(deg)": 45.0,
        "Latitude(deg)": 11.287248685831644,
        "Longitude(deg)": -111.44070098573991,
        "Mean Anomaly(deg)": 163.9399057012495,
        "RAAN(deg)": 179.99971705417215,
        "Satellite Name": "Constellation 1 802",
        "Satellite Number": 802,
        "Semi-Major Axis(m)": 7083131.272910544,
        "Time(s)": 5
    },
    {
        "Altitude(m)": 702685.4709706085,
        "Argument of Periapsis(deg)": 0.00035968803747243373,
        "Eccentricity": 0.0,
        "Inclination(deg)": 45.0,
        "Latitude(deg)": 11.244892483689252,
        "Longitude(deg)": -111.40024949880234,
        "Mean Anomaly(deg)": 164.00060684149943,
        "RAAN(deg)": 179.9996604650066,
        "Satellite Name": "Constellation 1 802",
        "Satellite Number": 802,
        "Semi-Major Axis(m)": 7083131.272910544,
        "Time(s)": 6
    },
    {
        "Altitude(m)": 702685.7391381923,
        "Argument of Periapsis(deg)": 0.00041963604371783933,
        "Eccentricity": 0.0,
        "Inclination(deg)": 45.0,
        "Latitude(deg)": 11.202529532961773,
        "Longitude(deg)": -111.35981122548623,
        "Mean Anomaly(deg)": 164.0613079817493,
        "RAAN(deg)": 179.99960387584102,
        "Satellite Name": "Constellation 1 802",
        "Satellite Number": 802,
        "Semi-Major Axis(m)": 7083131.272910544,
        "Time(s)": 7
    },
    {
        "Altitude(m)": 702686.0264869716,
        "Argument of Periapsis(deg)": 0.0004795840499632449,
        "Eccentricity": 0.0,
        "Inclination(deg)": 45.0,
        "Latitude(deg)": 11.160159861844663,
        "Longitude(deg)": -111.31938577767907,
        "Mean Anomaly(deg)": 164.12200912199918,
        "RAAN(deg)": 179.99954728667547,
        "Satellite Name": "Constellation 1 802",
        "Satellite Number": 802,
        "Semi-Major Axis(m)": 7083131.272910544,
        "Time(s)": 8
    },
    {
        "Altitude(m)": 702686.3330339602,
        "Argument of Periapsis(deg)": 0.0005395320562086505,
        "Eccentricity": 0.0,
        "Inclination(deg)": 45.0,
        "Latitude(deg)": 11.117783498509029,
        "Longitude(deg)": -111.27897327158546,
        "Mean Anomaly(deg)": 164.18271026224906,
        "RAAN(deg)": 179.99949069750988,
        "Satellite Name": "Constellation 1 802",
        "Satellite Number": 802,
        "Semi-Major Axis(m)": 7083131.272910544,
        "Time(s)": 9
    },
    {
        "Altitude(m)": 702686.6587960826,
        "Argument of Periapsis(deg)": 0.0005994800624540561,
        "Eccentricity": 0.0,
        "Inclination(deg)": 45.0,
        "Latitude(deg)": 11.075400471100538,
        "Longitude(deg)": -111.23857365533839,
        "Mean Anomaly(deg)": 164.24341140249905,
        "RAAN(deg)": 179.9994341083443,
        "Satellite Name": "Constellation 1 802",
        "Satellite Number": 802,
        "Semi-Major Axis(m)": 7083131.272910544,
        "Time(s)": 10
    },
    {
        "Altitude(m)": 702687.003790187,
        "Argument of Periapsis(deg)": 0.0006594280686994618,
        "Eccentricity": 0.0,
        "Inclination(deg)": 45.0,
        "Latitude(deg)": 11.033010807740204,
        "Longitude(deg)": -111.19818687709667,
        "Mean Anomaly(deg)": 164.30411254274887,
        "RAAN(deg)": 179.99937751917872,
        "Satellite Name": "Constellation 1 802",
        "Satellite Number": 802,
        "Semi-Major Axis(m)": 7083131.272910544,
        "Time(s)": 11
    },
    {
        "Altitude(m)": 702687.3680330418,
        "Argument of Periapsis(deg)": 0.0007193760749448675,
        "Eccentricity": 0.0,
        "Inclination(deg)": 45.0,
        "Latitude(deg)": 10.990614536523998,
        "Longitude(deg)": -111.1578128850445,
        "Mean Anomaly(deg)": 164.36481368299877,
        "RAAN(deg)": 179.99932093001317,
        "Satellite Name": "Constellation 1 802",
        "Satellite Number": 802,
        "Semi-Major Axis(m)": 7083131.272910544,
        "Time(s)": 12
    },
    {
        "Altitude(m)": 702687.7515413285,
        "Argument of Periapsis(deg)": 0.000779324081190273,
        "Eccentricity": 0.0,
        "Inclination(deg)": 45.0,
        "Latitude(deg)": 10.94821168552322,
        "Longitude(deg)": -111.11745162739147,
        "Mean Anomaly(deg)": 164.4255148232487,
        "RAAN(deg)": 179.9992643408476,
        "Satellite Name": "Constellation 1 802",
        "Satellite Number": 802,
        "Semi-Major Axis(m)": 7083131.272910544,
        "Time(s)": 13
    },
    {
        "Altitude(m)": 702688.1543316486,
        "Argument of Periapsis(deg)": 0.0008392720874356787,
        "Eccentricity": 0.0,
        "Inclination(deg)": 45.0,
        "Latitude(deg)": 10.905802282784695,
        "Longitude(deg)": -111.07710305237279,
        "Mean Anomaly(deg)": 164.4862159634986,
        "RAAN(deg)": 179.99920775168204,
        "Satellite Name": "Constellation 1 802",
        "Satellite Number": 802,
        "Semi-Major Axis(m)": 7083131.272910544,
        "Time(s)": 14
    },
    {
        "Altitude(m)": 702688.5764205231,
        "Argument of Periapsis(deg)": 0.0008992200936810842,
        "Eccentricity": 0.0,
        "Inclination(deg)": 45.0,
        "Latitude(deg)": 10.863386356330713,
        "Longitude(deg)": -111.03676727634576,
        "Mean Anomaly(deg)": 164.5469171037485,
        "RAAN(deg)": 179.99915116251645,
        "Satellite Name": "Constellation 1 802",
        "Satellite Number": 802,
        "Semi-Major Axis(m)": 7083131.272910544,
        "Time(s)": 15
    },
    {
        "Altitude(m)": 702689.0178243907,
        "Argument of Periapsis(deg)": 0.0009591680999264898,
        "Eccentricity": 0.0,
        "Inclination(deg)": 45.0,
        "Latitude(deg)": 10.820963934158879,
        "Longitude(deg)": -110.99644391140207,
        "Mean Anomaly(deg)": 164.60761824399836,
        "RAAN(deg)": 179.99909457335087,
        "Satellite Name": "Constellation 1 802",
        "Satellite Number": 802,
        "Semi-Major Axis(m)": 7083131.272910544,
        "Time(s)": 16
    },
    {
        "Altitude(m)": 702689.4785596022,
        "Argument of Periapsis(deg)": 0.0010191161061718953,
        "Eccentricity": 0.0,
        "Inclination(deg)": 45.0,
        "Latitude(deg)": 10.778535044242712,
        "Longitude(deg)": -110.95613307394936,
        "Mean Anomaly(deg)": 164.66831938424835,
        "RAAN(deg)": 179.99903798418532,
        "Satellite Name": "Constellation 1 802",
        "Satellite Number": 802,
        "Semi-Major Axis(m)": 7083131.272910544,
        "Time(s)": 17
    },
    {
        "Altitude(m)": 702689.9586424388,
        "Argument of Periapsis(deg)": 0.001079064112417301,
        "Eccentricity": 0.0,
        "Inclination(deg)": 45.0,
        "Latitude(deg)": 10.736099714531626,
        "Longitude(deg)": -110.9158347123236,
        "Mean Anomaly(deg)": 164.7290205244982,
        "RAAN(deg)": 179.99898139501974,
        "Satellite Name": "Constellation 1 802",
        "Satellite Number": 802,
        "Semi-Major Axis(m)": 7083131.272910544,
        "Time(s)": 18
    }
]